[{"OBJECT_NAME":"STARLINK-36608","OBJECT_ID":"2026-034E","EPOCH":"2026-03-09T19:00:15.808032","MEAN_MOTION":15.8100686,"ECCENTRICITY":7.507e-5,"INCLINATION":53.1586,"RA_OF_ASC_NODE":210.8092,"ARG_OF_PERICENTER":98.0259,"MEAN_ANOMALY":262.0849,"EPHEMERIS_TYPE":0,"CLASSIFICATION_TYPE":"U","NORAD_CAT_ID":67854,"ELEMENT_SET_NO":999,"REV_AT_EPOCH":394,"BSTAR":0.0016973163,"MEAN_MOTION_DOT":0.00350418,"MEAN_MOTION_DDOT":0},{"OBJECT_NAME":"FALCON 9 R\/B","OBJECT_ID":"2020-096B","EPOCH":"2026-03-09T13:59:35.299680","MEAN_MOTION":6.65622714,"ECCENTRICITY":0.44494914,"INCLINATION":26.9441,"RA_OF_ASC_NODE":233.0176,"ARG_OF_PERICENTER":79.4333,"MEAN_ANOMALY":326.2978,"EPHEMERIS_TYPE":0,"CLASSIFICATION_TYPE":"U","NORAD_CAT_ID":47241,"ELEMENT_SET_NO":999,"REV_AT_EPOCH":9971,"BSTAR":0.0012280751,"MEAN_MOTION_DOT":0.0002676,"MEAN_MOTION_DDOT":0}]
